NORAD_CAT_ID,OBJECT_NAME,OBJECT_TYPE,EPOCH,MEAN_MOTION,ECCENTRICITY,INCLINATION,RA_OF_ASC_NODE,ARG_OF_PERICENTER,MEAN_ANOMALY,BSTAR,MEAN_MOTION_DOT,MEAN_MOTION_DDOT,TLE_LINE0,TLE_LINE1,TLE_LINE2,SEMIMAJOR_AXIS,PERIOD,APOGEE,PERIGEE,DECAYED
49421.0,STARLINK-3112,PAYLOAD,2022-02-21 22:00:00,15.08833101,0.0001968,53.2191,18.5981,52.5721,235.1699,0.0010267999999999,0.00016088,0.0,0 STARLINK-3112,1 49421U 21104P   22052.91667824  .00016088  00000-0  10268-2 0  9994,2 49421  53.2191  18.5981 0001968  52.5721 235.1699 15.08833101  3560,6917.901,95.438,541.128,538.405,0.0
49421.0,STARLINK-3112,PAYLOAD,2022-02-22 04:00:00,15.08840053,0.0002122,53.2188,17.4774,48.4286,158.0092,-0.000575,-9.428e-05,0.0,0 STARLINK-3112,1 49421U 21104P   22053.16667824 -.00009428  00000-0 -57500-3 0  9995,2 49421  53.2188  17.4774 0002122  48.4286 158.0092 15.08840053 16802,6917.88,95.438,541.2130000000002,538.2769999999998,0.0
49421.0,STARLINK-3112,PAYLOAD,2022-02-22 14:00:01,15.08858245,0.0002043,53.2185,15.6063,49.4996,261.4273,-0.0017746,-0.00028435,0.0,0 STARLINK-3112,1 49421U 21104P   22053.58334491 -.00028435  00000-0 -17746-2 0  9998,2 49421  53.2185  15.6063 0002043  49.4996 261.4273 15.08858245  3584,6917.825,95.436,541.1030000000002,538.276,0.0
49421.0,STARLINK-3112,PAYLOAD,2022-02-22 22:00:00,15.08860232,0.0001941,53.2186,14.1094,53.9543,268.5794,-0.0019581,-0.00031334,0.0,0 STARLINK-3112,1 49421U 21104P   22053.91667824 -.00031334  00000-0 -19581-2 0  9995,2 49421  53.2186  14.1094 0001941  53.9543 268.5794 15.08860232 16913,6917.819,95.436,541.026,538.341,0.0
49421.0,STARLINK-3112,PAYLOAD,2022-02-23 14:00:01,15.08850159,0.000199,53.218,11.1173,50.0502,295.6766,-0.0013234,-0.00021295,0.0,0 STARLINK-3112,1 49421U 21104P   22054.58334491 -.00021295  00000-0 -13234-2 0  9994,2 49421  53.2180  11.1173 0001990  50.0502 295.6766 15.08850159 17018,6917.849,95.437,541.091,538.3380000000002,0.0
49421.0,STARLINK-3112,PAYLOAD,2022-02-23 22:00:00,15.08854206,0.0001921,53.2181,9.6206,53.5419,303.7767,-0.0023754,-0.00037909,0.0,0 STARLINK-3112,1 49421U 21104P   22054.91667824 -.00037909  00000-0 -23754-2 0  9997,2 49421  53.2181   9.6206 0001921  53.5419 303.7767 15.08854206  3594,6917.837,95.437,541.031,538.373,0.0
49421.0,STARLINK-3112,PAYLOAD,2022-02-24 14:00:01,15.08836175,0.0001986,53.2176,6.6282,50.1156,330.3731,-0.00070894,-0.00011552,0.0,0 STARLINK-3112,1 49421U 21104P   22055.58334491 -.00011552  00000-0 -70894-3 0  9996,2 49421  53.2176   6.6282 0001986  50.1156 330.3731 15.08836175  3593,6917.892,95.438,541.131,538.383,0.0
49421.0,STARLINK-3112,PAYLOAD,2022-02-24 22:00:00,15.088478599999998,0.0002003,53.2178,5.1316,53.6102,338.461,-0.00014604,-2.612e-05,0.0,0 STARLINK-3112,1 49421U 21104P   22055.91667824 -.00002612  00000-0 -14604-3 0  9996,2 49421  53.2178   5.1316 0002003  53.6102 338.4610 15.08847860  3573,6917.856,95.437,541.107,538.336,0.0
49421.0,STARLINK-3112,PAYLOAD,2022-02-25 06:00:00,15.08825226,0.0002179,53.2178,3.6369,48.8525,354.8266,0.0025618,0.00040703,0.0,0 STARLINK-3112,1 49421U 21104P   22056.25001157  .00040703  00000-0  25618-2 0  9992,2 49421  53.2178   3.6369 0002179  48.8525 354.8266 15.08825226 17276,6917.926,95.438,541.298,538.283,0.0
49421.0,STARLINK-3112,PAYLOAD,2022-02-25 14:00:01,15.08858502,0.0002054,53.2178,2.1387,50.9015,4.3737,-0.0011248,-0.00018154,0.0,0 STARLINK-3112,1 49421U 21104P   22056.58334491 -.00018154  00000-0 -11248-2 0  9999,2 49421  53.2178   2.1387 0002054  50.9015   4.3737 15.08858502  3571,6917.824000000001,95.436,541.11,538.268,0.0
49421.0,STARLINK-3112,PAYLOAD,2022-02-25 22:00:00,15.08858126,0.000204,53.2179,0.6423,53.1801,13.7036,-0.0019336,-0.00030946,0.0,0 STARLINK-3112,1 49421U 21104P   22056.91667824 -.00030946  00000-0 -19336-2 0  9994,2 49421  53.2179   0.6423 0002040  53.1801  13.7036 15.08858126 17370,6917.825,95.436,541.101,538.279,0.0
49421.0,STARLINK-3112,PAYLOAD,2022-02-26 14:00:01,15.08828569,0.0001993,53.2183,357.6494,49.3081,40.7748,-0.001106,-0.00017842,0.0,0 STARLINK-3112,1 49421U 21104P   22057.58334491 -.00017842  00000-0 -11060-2 0  9995,2 49421  53.2183 357.6494 0001993  49.3081  40.7748 15.08828569  3600,6917.915,95.438,541.159,538.4019999999998,0.0
49421.0,STARLINK-3112,PAYLOAD,2022-02-26 22:00:00,15.08837209,0.0002041,53.2185,356.1531,51.1989,50.4508,-0.00084336,-0.00013684,0.0,0 STARLINK-3112,1 49421U 21104P   22057.91667824 -.00013684  00000-0 -84336-3 0  9998,2 49421  53.2185 356.1531 0002041  51.1989  50.4508 15.08837209 17520,6917.889,95.438,541.1659999999998,538.342,0.0
49421.0,STARLINK-3112,PAYLOAD,2022-02-27 06:00:00,15.08834603,0.0002114,53.2174,354.6643,51.265,61.9048,0.00024259,3.574e-05,0.0,0 STARLINK-3112,1 49421U 21104P   22058.25001157  .00003574  00000-0  24259-3 0  9990,2 49421  53.2174 354.6643 0002114  51.2650  61.9048 15.08834603 17578,6917.897,95.438,541.224,538.299,0.0
49421.0,STARLINK-3112,PAYLOAD,2022-02-27 14:00:01,15.08826286,0.0002062,53.2188,353.1604,50.3491,74.465,0.00067058,0.00010396,0.0,0 STARLINK-3112,1 49421U 21104P   22058.58334491  .00010396  00000-0  67058-3 0  9990,2 49421  53.2188 353.1604 0002062  50.3491  74.4650 15.08826286  3615,6917.922,95.438,541.214,538.361,0.0
49421.0,STARLINK-3112,PAYLOAD,2022-02-27 22:00:00,15.08854515,0.0002124,53.2191,351.6643,52.5638,83.8309,-0.0012407,-0.00019988,0.0,0 STARLINK-3112,1 49421U 21104P   22058.91667824 -.00019988  00000-0 -12407-2 0  9991,2 49421  53.2191 351.6643 0002124  52.5638  83.8309 15.08854515 17673,6917.8359999999975,95.437,541.17,538.232,0.0
49421.0,STARLINK-3112,PAYLOAD,2022-02-28 14:00:01,15.08860385,0.0002058,53.2191,348.6714,51.8388,107.7845,-0.00073066,-0.00011905,0.0,0 STARLINK-3112,1 49421U 21104P   22059.58334491 -.00011905  00000-0 -73066-3 0  9996,2 49421  53.2191 348.6714 0002058  51.8388 107.7845 15.08860385 17772,6917.818,95.436,541.107,538.259,0.0
49421.0,STARLINK-3112,PAYLOAD,2022-02-28 22:00:00,15.08844711,0.0002094,53.2189,347.1767,51.90600000000001,119.2683,-0.0016452,-0.0002638,0.0,0 STARLINK-3112,1 49421U 21104P   22059.91667824 -.00026380  00000-0 -16452-2 0  9990,2 49421  53.2189 347.1767 0002094  51.9060 119.2683 15.08844711 17828,6917.866,95.437,541.18,538.2819999999998,0.0
49421.0,STARLINK-3112,PAYLOAD,2022-03-01 14:00:01,15.08833614,0.0002026,53.219,344.1827,52.2546,142.1296,0.00176,0.00027829,0.0,0 STARLINK-3112,1 49421U 21104P   22060.58334491  .00027829  00000-0  17600-2 0  9999,2 49421  53.2190 344.1827 0002026  52.2546 142.1296 15.08833614 17928,6917.9,95.438,541.1659999999998,538.363,0.0
49421.0,STARLINK-3112,PAYLOAD,2022-03-01 22:00:01,15.08882113,0.000206,53.2191,342.6871,53.407,152.6356,-0.0036443,-0.00057889,0.0,0 STARLINK-3112,1 49421U 21104P   22060.91668981 -.00057889  00000-0 -36443-2 0  9997,2 49421  53.2191 342.6871 0002060  53.4070 152.6356 15.08882113  3605,6917.752,95.435,541.0419999999998,538.192,0.0
49421.0,STARLINK-3112,PAYLOAD,2022-03-02 06:00:00,15.08814357,0.0002124,53.2186,341.1921,47.7924,169.8161,0.0027133,0.00043129,0.0,0 STARLINK-3112,1 49421U 21104P   22061.25001157  .00043129  00000-0  27133-2 0  9997,2 49421  53.2186 341.1921 0002124  47.7924 169.8161 15.08814357 18025,6917.959,95.439,541.293,538.354,0.0
49421.0,STARLINK-3112,PAYLOAD,2022-03-02 14:00:01,15.0882948,0.0001938,53.2185,339.694,52.6149,176.5866,0.00098656,0.00015443,0.0,0 STARLINK-3112,1 49421U 21104P   22061.58334491  .00015443  00000-0  98656-3 0  9990,2 49421  53.2185 339.6940 0001938  52.6149 176.5866 15.08829480  3577,6917.913000000001,95.438,541.118,538.437,0.0
49421.0,STARLINK-3112,PAYLOAD,2022-03-02 22:00:00,15.08843799,0.0001973,53.2185,338.1987,52.3718,188.4178,-0.0023501,-0.000375,0.0,0 STARLINK-3112,1 49421U 21104P   22061.91667824 -.00037500  00000-0 -23501-2 0  9992,2 49421  53.2185 338.1987 0001973  52.3718 188.4178 15.08843799 18124,6917.869000000002,95.437,541.099,538.369,0.0
49421.0,STARLINK-3112,PAYLOAD,2022-03-03 14:00:01,15.08807423,0.0001937,53.2178,335.2053,53.2405,210.7114,0.0025784,0.0004095,0.0,0 STARLINK-3112,1 49421U 21104P   22062.58334491  .00040950  00000-0  25784-2 0  9993,2 49421  53.2178 335.2053 0001937  53.2405 210.7114 15.08807423 18225,6917.98,95.44,541.185,538.505,0.0
49421.0,STARLINK-3112,PAYLOAD,2022-03-03 18:00:00,15.08827693,0.0001979,53.2179,334.4572,55.9951,33.7377,0.0014117,0.00022243,0.0,0 STARLINK-3112,1 49421U 21104P   22062.75001157  .00022243  00000-0  14117-2 0  9995,2 49421  53.2179 334.4572 0001979  55.9951  33.7377 15.08827693  3571,6917.918000000002,95.438,541.1519999999998,538.414,0.0
49421.0,STARLINK-3112,PAYLOAD,2022-03-04 06:00:02,15.0883026,0.0002135,53.2174,332.2146,49.1795,238.002,0.001714,0.00027089,0.0,0 STARLINK-3112,1 49421U 21104P   22063.25002315  .00027089  00000-0  17140-2 0  9990,2 49421  53.2174 332.2146 0002135  49.1795 238.0020 15.08830260 18323,6917.91,95.438,541.252,538.298,0.0
49421.0,STARLINK-3112,PAYLOAD,2022-03-04 14:00:01,15.08833137,0.0001979,53.2173,330.7164,54.6084,244.179,0.0014353,0.00022624,0.0,0 STARLINK-3112,1 49421U 21104P   22063.58335648  .00022624  00000-0  14353-2 0  9997,2 49421  53.2173 330.7164 0001979  54.6084 244.1790 15.08833137  3593,6917.901,95.438,541.135,538.3969999999998,0.0
49421.0,STARLINK-3112,PAYLOAD,2022-03-04 22:00:00,15.08850634,0.0002066,53.2174,329.2211,52.8806,257.4467,-0.0021077,-0.00033686,0.0,0 STARLINK-3112,1 49421U 21104P   22063.91667824 -.00033686  00000-0 -21077-2 0  9991,2 49421  53.2174 329.2211 0002066  52.8806 257.4467 15.08850634 18427,6917.848000000001,95.437,541.1419999999998,538.284,0.0
49421.0,STARLINK-3112,PAYLOAD,2022-03-05 06:00:00,15.08833575,0.0002127,53.217,327.7253,48.1183,273.8039,0.001435,0.0002262,0.0,0 STARLINK-3112,1 49421U 21104P   22064.25001157  .00022620  00000-0  14350-2 0  9990,2 49421  53.2170 327.7253 0002127  48.1183 273.8039 15.08833575  3567,6917.9,95.438,541.236,538.294,0.0
